{
    "links": {
        "self": "http://www.neowsapp.com/rest/v1/neo/3767252?api_key=iIulBulltgU6a56xZRHN4H3l9WmuAYTsLGpBGhQ2"
    },
    "id": "3767252",
    "neo_reference_id": "3767252",
    "name": "(2017 BH32)",
    "designation": "2017 BH32",
    "nasa_jpl_url": "http://ssd.jpl.nasa.gov/sbdb.cgi?sstr=3767252",
    "absolute_magnitude_h": 22.2,
    "estimated_diameter": {
        "kilometers": {
            "estimated_diameter_min": 0.096506147,
            "estimated_diameter_max": 0.2157943048
        },
        "meters": {
            "estimated_diameter_min": 96.5061469579,
            "estimated_diameter_max": 215.7943048444
        },
        "miles": {
            "estimated_diameter_min": 0.059966121,
            "estimated_diameter_max": 0.134088323
        },
        "feet": {
            "estimated_diameter_min": 316.6212271853,
            "estimated_diameter_max": 707.9865871058
        }
    },
    "is_potentially_hazardous_asteroid": false,
    "close_approach_data": [
        {
            "close_approach_date": "1911-08-28",
            "close_approach_date_full": "1911-Aug-28 17:49",
            "epoch_date_close_approach": -1841206260000,
            "relative_velocity": {
                "kilometers_per_second": "17.1702879171",
                "kilometers_per_hour": "61813.0365015298",
                "miles_per_hour": "38408.2170417422"
            },
            "miss_distance": {
                "astronomical": "0.4251178296",
                "lunar": "165.3708357144",
                "kilometers": "63596721.807182952",
                "miles": "39517170.4954386576"
            },
            "orbiting_body": "Earth"
        },
        {
            "close_approach_date": "2016-08-31",
            "close_approach_date_full": "2016-Aug-31 00:09",
            "epoch_date_close_approach": 1472602140000,
            "relative_velocity": {
                "kilometers_per_second": "16.1685758113",
                "kilometers_per_hour": "58206.8729206976",
                "miles_per_hour": "36167.4872323079"
            },
            "miss_distance": {
                "astronomical": "0.3914442881",
                "lunar": "152.2718280709",
                "kilometers": "58559231.723426347",
                "miles": "36387019.3044317086"
            },
            "orbiting_body": "Earth"
        },
        {
            "close_approach_date": "2016-12-31",
            "close_approach_date_full": "2016-Dec-31 05:23",
            "epoch_date_close_approach": 1483161780000,
            "relative_velocity": {
                "kilometers_per_second": "4.5288346689",
                "kilometers_per_hour": "16303.8048079077",
                "miles_per_hour": "10130.5502707802"
            },
            "miss_distance": {
                "astronomical": "0.4756469892",
                "lunar": "185.0266787988",
                "kilometers": "71155776.456233004",
                "miles": "44214149.2525592952"
            },
            "orbiting_body": "Earth"
        },
        {
            "close_approach_date": "2018-12-10",
            "close_approach_date_full": "2018-Dec-10 15:12",
            "epoch_date_close_approach": 1544454720000,
            "relative_velocity": {
                "kilometers_per_second": "18.3109211351",
                "kilometers_per_hour": "65919.3160863416",
                "miles_per_hour": "40959.6994870938"
            },
            "miss_distance": {
                "astronomical": "0.4753693627",
                "lunar": "184.9186820903",
                "kilometers": "71114244.123177449",
                "miles": "44188342.2574848362"
            },
            "orbiting_body": "Earth"
        }
    ],
    "orbital_data": {
        "orbit_id": "3",
        "orbit_determination_date": "2017-04-06 08:20:36",
        "first_observation_date": "2017-01-26",
        "last_observation_date": "2017-02-04",
        "data_arc_in_days": 9,
        "observations_used": 18,
        "orbit_uncertainty": "8",
        "minimum_orbit_intersection": ".0900149",
        "jupiter_tisserand_invariant": "4.175",
        "epoch_osculation": "2457782.5",
        "eccentricity": ".3768142316724409",
        "semi_major_axis": "1.661042597968615",
        "inclination": "5.131833378465702",
        "ascending_node_longitude": "135.7032062101796",
        "orbital_period": "781.9330721997251",
        "perihelion_distance": "1.035138107639876",
        "perihelion_argument": "254.272681857497",
        "aphelion_distance": "2.286947088297353",
        "perihelion_time": "2457660.538318026626",
        "mean_anomaly": "56.15084854628058",
        "mean_motion": ".4603974595770098",
        "equinox": "J2000",
        "orbit_class": {
            "orbit_class_type": "AMO",
            "orbit_class_description": "Near-Earth asteroid orbits similar to that of 1221 Amor",
            "orbit_class_range": "1.017 AU < q (perihelion) < 1.3 AU"
        }
    },
    "is_sentry_object": false
}